ONEWEB-0248             
1 48798U 21045AH  25310.26449028  .00000009  00000+0 -91555-5 0  9993
2 48798  87.8963 303.6634 0002463  92.0565 268.0848 13.15547221215102
ONEWEB-0225             
1 48799U 21045AJ  25310.28667808  .00000321  00000+0  81795-3 0  9993
2 48799  87.8960 303.6863 0002387 101.2192 258.9207 13.15549799215118
ONEWEB-0215             
1 48800U 21045AK  25310.25655934 -.00000047  00000+0 -15884-3 0  9993
2 48800  87.8966 303.6486 0002530  98.6360 261.5057 13.15546863214980
ONEWEB-0216             
1 48801U 21045AL  25310.03787804 -.00000296  00000+0 -82057-3 0  9994
2 48801  87.8955 303.7277 0001735  96.3105 263.8223 13.15547270214967
ONEWEB-0239             
1 48802U 21045AM  25310.27083471  .00000203  00000+0  50642-3 0  9991
2 48802  87.8956 303.6959 0002691  92.8395 267.3043 13.15548991215038
ONEWEB-0249             
1 48967U 21060A   25310.30500231 -.00000034  00000+0 -12246-3 0  9994
2 48967  87.8999 273.1702 0002017  84.9518 275.1843 13.16595794210286
ONEWEB-0250             
1 48968U 21060B   25310.29904434  .00000023  00000+0  21222-4 0  9997
2 48968  87.8995 271.6566 0002801  69.6235 290.5202 13.25816808210687
ONEWEB-0252             
1 48970U 21060D   25310.26068146 -.00000024  00000+0 -95766-4 0  9995
2 48970  87.8996 273.1725 0001756  90.6746 269.4586 13.16591952210325
ONEWEB-0253             
1 48971U 21060E   25310.17359937  .00000000  00000+0 -33507-4 0  9995
2 48971  87.8999 273.1937 0002033  87.3405 272.7958 13.16592757210243
ONEWEB-0254             
1 48972U 21060F   25310.25910403  .00000092  00000+0  20817-3 0  9995
2 48972  87.9004 273.1664 0002237  86.9395 273.1992 13.16593337210257
ONEWEB-0255             
1 48973U 21060G   25310.29708425 -.00000034  00000+0 -12292-3 0  9995
2 48973  87.8995 273.1785 0002127  85.9619 274.1755 13.16596038210334
ONEWEB-0256             
1 48974U 21060H   25310.17121232  .00000105  00000+0  24171-3 0  9994
2 48974  87.8987 273.2137 0001771  83.1086 277.0246 13.16596076210283
ONEWEB-0257             
1 48975U 21060J   25310.27967638  .00000003  00000+0 -24901-4 0  9994
2 48975  87.9001 273.1663 0001995  91.1718 268.9641 13.16594893210254
ONEWEB-0258             
1 48976U 21060K   25310.28125689  .00000088  00000+0  19536-3 0  9997
2 48976  87.8989 273.1845 0001933  79.9023 280.2326 13.16595828210263
ONEWEB-0259             
1 48977U 21060L   25310.27492885  .00000022  00000+0  22957-4 0  9992
2 48977  87.9001 273.1765 0002088  85.2044 274.9325 13.16595020210292
ONEWEB-0260             
1 48978U 21060M   25310.26622796 -.00000007  00000+0 -52376-4 0  9991
2 48978  87.8989 273.1964 0001513  90.5724 269.5580 13.16595080210271
