[{"OBJECT_NAME":"ONEWEB-0248","OBJECT_ID":"2021-045AH","EPOCH":"2025-11-06T06:20:51.960192","MEAN_MOTION":13.15547221,"ECCENTRICITY":0.00024637,"INCLINATION":87.8963,"RA_OF_ASC_NODE":303.6634,"ARG_OF_PERICENTER":92.0565,"MEAN_ANOMALY":268.0848,"EPHEMERIS_TYPE":0,"CLASSIFICATION_TYPE":"U","NORAD_CAT_ID":48798,"ELEMENT_SET_NO":999,"REV_AT_EPOCH":21510,"BSTAR":-9.155476e-6,"MEAN_MOTION_DOT":9.0e-8,"MEAN_MOTION_DDOT":0},{"OBJECT_NAME":"ONEWEB-0225","OBJECT_ID":"2021-045AJ","EPOCH":"2025-11-06T06:52:48.986112","MEAN_MOTION":13.15549799,"ECCENTRICITY":0.00023877,"INCLINATION":87.896,"RA_OF_ASC_NODE":303.6863,"ARG_OF_PERICENTER":101.2192,"MEAN_ANOMALY":258.9207,"EPHEMERIS_TYPE":0,"CLASSIFICATION_TYPE":"U","NORAD_CAT_ID":48799,"ELEMENT_SET_NO":999,"REV_AT_EPOCH":21511,"BSTAR":0.00081794913,"MEAN_MOTION_DOT":3.21e-6,"MEAN_MOTION_DDOT":0},{"OBJECT_NAME":"ONEWEB-0215","OBJECT_ID":"2021-045AK","EPOCH":"2025-11-06T06:09:26.726976","MEAN_MOTION":13.15546863,"ECCENTRICITY":0.00025305,"INCLINATION":87.8966,"RA_OF_ASC_NODE":303.6486,"ARG_OF_PERICENTER":98.636,"MEAN_ANOMALY":261.5057,"EPHEMERIS_TYPE":0,"CLASSIFICATION_TYPE":"U","NORAD_CAT_ID":48800,"ELEMENT_SET_NO":999,"REV_AT_EPOCH":21498,"BSTAR":-0.00015883834,"MEAN_MOTION_DOT":-4.7e-7,"MEAN_MOTION_DDOT":0},{"OBJECT_NAME":"ONEWEB-0216","OBJECT_ID":"2021-045AL","EPOCH":"2025-11-06T00:54:32.662656","MEAN_MOTION":13.1554727,"ECCENTRICITY":0.00017353,"INCLINATION":87.8955,"RA_OF_ASC_NODE":303.7277,"ARG_OF_PERICENTER":96.3105,"MEAN_ANOMALY":263.8223,"EPHEMERIS_TYPE":0,"CLASSIFICATION_TYPE":"U","NORAD_CAT_ID":48801,"ELEMENT_SET_NO":999,"REV_AT_EPOCH":21496,"BSTAR":-0.00082057105,"MEAN_MOTION_DOT":-2.96e-6,"MEAN_MOTION_DDOT":0},{"OBJECT_NAME":"ONEWEB-0239","OBJECT_ID":"2021-045AM","EPOCH":"2025-11-06T06:30:00.118944","MEAN_MOTION":13.15548991,"ECCENTRICITY":0.00026912,"INCLINATION":87.8956,"RA_OF_ASC_NODE":303.6959,"ARG_OF_PERICENTER":92.8395,"MEAN_ANOMALY":267.3043,"EPHEMERIS_TYPE":0,"CLASSIFICATION_TYPE":"U","NORAD_CAT_ID":48802,"ELEMENT_SET_NO":999,"REV_AT_EPOCH":21503,"BSTAR":0.00050641539,"MEAN_MOTION_DOT":2.03e-6,"MEAN_MOTION_DDOT":0},{"OBJECT_NAME":"ONEWEB-0249","OBJECT_ID":"2021-060A","EPOCH":"2025-11-06T07:19:12.199584","MEAN_MOTION":13.16595794,"ECCENTRICITY":0.00020178,"INCLINATION":87.8999,"RA_OF_ASC_NODE":273.1702,"ARG_OF_PERICENTER":84.9518,"MEAN_ANOMALY":275.1843,"EPHEMERIS_TYPE":0,"CLASSIFICATION_TYPE":"U","NORAD_CAT_ID":48967,"ELEMENT_SET_NO":999,"REV_AT_EPOCH":21028,"BSTAR":-0.00012245737,"MEAN_MOTION_DOT":-3.4e-7,"MEAN_MOTION_DDOT":0},{"OBJECT_NAME":"ONEWEB-0250","OBJECT_ID":"2021-060B","EPOCH":"2025-11-06T07:10:37.430976","MEAN_MOTION":13.25816808,"ECCENTRICITY":0.00028011,"INCLINATION":87.8995,"RA_OF_ASC_NODE":271.6566,"ARG_OF_PERICENTER":69.6235,"MEAN_ANOMALY":290.5202,"EPHEMERIS_TYPE":0,"CLASSIFICATION_TYPE":"U","NORAD_CAT_ID":48968,"ELEMENT_SET_NO":999,"REV_AT_EPOCH":21068,"BSTAR":2.1221963e-5,"MEAN_MOTION_DOT":2.3e-7,"MEAN_MOTION_DDOT":0},{"OBJECT_NAME":"ONEWEB-0252","OBJECT_ID":"2021-060D","EPOCH":"2025-11-06T06:15:22.878144","MEAN_MOTION":13.16591952,"ECCENTRICITY":0.00017564,"INCLINATION":87.8996,"RA_OF_ASC_NODE":273.1725,"ARG_OF_PERICENTER":90.6746,"MEAN_ANOMALY":269.4586,"EPHEMERIS_TYPE":0,"CLASSIFICATION_TYPE":"U","NORAD_CAT_ID":48970,"ELEMENT_SET_NO":999,"REV_AT_EPOCH":21032,"BSTAR":-9.5765511e-5,"MEAN_MOTION_DOT":-2.4e-7,"MEAN_MOTION_DDOT":0},{"OBJECT_NAME":"ONEWEB-0253","OBJECT_ID":"2021-060E","EPOCH":"2025-11-06T04:09:58.985568","MEAN_MOTION":13.16592757,"ECCENTRICITY":0.00020336,"INCLINATION":87.8999,"RA_OF_ASC_NODE":273.1937,"ARG_OF_PERICENTER":87.3405,"MEAN_ANOMALY":272.7958,"EPHEMERIS_TYPE":0,"CLASSIFICATION_TYPE":"U","NORAD_CAT_ID":48971,"ELEMENT_SET_NO":999,"REV_AT_EPOCH":21024,"BSTAR":-3.3506749e-5,"MEAN_MOTION_DOT":0,"MEAN_MOTION_DDOT":0},{"OBJECT_NAME":"ONEWEB-0254","OBJECT_ID":"2021-060F","EPOCH":"2025-11-06T06:13:06.588192","MEAN_MOTION":13.16593337,"ECCENTRICITY":0.00022379,"INCLINATION":87.9004,"RA_OF_ASC_NODE":273.1664,"ARG_OF_PERICENTER":86.9395,"MEAN_ANOMALY":273.1992,"EPHEMERIS_TYPE":0,"CLASSIFICATION_TYPE":"U","NORAD_CAT_ID":48972,"ELEMENT_SET_NO":999,"REV_AT_EPOCH":21025,"BSTAR":0.00020816903,"MEAN_MOTION_DOT":9.2e-7,"MEAN_MOTION_DDOT":0},{"OBJECT_NAME":"ONEWEB-0255","OBJECT_ID":"2021-060G","EPOCH":"2025-11-06T07:07:48.079200","MEAN_MOTION":13.16596038,"ECCENTRICITY":0.00021277,"INCLINATION":87.8995,"RA_OF_ASC_NODE":273.1785,"ARG_OF_PERICENTER":85.9619,"MEAN_ANOMALY":274.1755,"EPHEMERIS_TYPE":0,"CLASSIFICATION_TYPE":"U","NORAD_CAT_ID":48973,"ELEMENT_SET_NO":999,"REV_AT_EPOCH":21033,"BSTAR":-0.00012291506,"MEAN_MOTION_DOT":-3.4e-7,"MEAN_MOTION_DDOT":0},{"OBJECT_NAME":"ONEWEB-0256","OBJECT_ID":"2021-060H","EPOCH":"2025-11-06T04:06:32.744448","MEAN_MOTION":13.16596076,"ECCENTRICITY":0.00017715,"INCLINATION":87.8987,"RA_OF_ASC_NODE":273.2137,"ARG_OF_PERICENTER":83.1086,"MEAN_ANOMALY":277.0246,"EPHEMERIS_TYPE":0,"CLASSIFICATION_TYPE":"U","NORAD_CAT_ID":48974,"ELEMENT_SET_NO":999,"REV_AT_EPOCH":21028,"BSTAR":0.00024170891,"MEAN_MOTION_DOT":1.05e-6,"MEAN_MOTION_DDOT":0},{"OBJECT_NAME":"ONEWEB-0257","OBJECT_ID":"2021-060J","EPOCH":"2025-11-06T06:42:44.039232","MEAN_MOTION":13.16594893,"ECCENTRICITY":0.00019959,"INCLINATION":87.9001,"RA_OF_ASC_NODE":273.1663,"ARG_OF_PERICENTER":91.1718,"MEAN_ANOMALY":268.9641,"EPHEMERIS_TYPE":0,"CLASSIFICATION_TYPE":"U","NORAD_CAT_ID":48975,"ELEMENT_SET_NO":999,"REV_AT_EPOCH":21025,"BSTAR":-2.4900944e-5,"MEAN_MOTION_DOT":3.0e-8,"MEAN_MOTION_DDOT":0},{"OBJECT_NAME":"ONEWEB-0258","OBJECT_ID":"2021-060K","EPOCH":"2025-11-06T06:45:00.595296","MEAN_MOTION":13.16595828,"ECCENTRICITY":0.00019339,"INCLINATION":87.8989,"RA_OF_ASC_NODE":273.1845,"ARG_OF_PERICENTER":79.9023,"MEAN_ANOMALY":280.2326,"EPHEMERIS_TYPE":0,"CLASSIFICATION_TYPE":"U","NORAD_CAT_ID":48976,"ELEMENT_SET_NO":999,"REV_AT_EPOCH":21026,"BSTAR":0.00019535668,"MEAN_MOTION_DOT":8.8e-7,"MEAN_MOTION_DDOT":0},{"OBJECT_NAME":"ONEWEB-0259","OBJECT_ID":"2021-060L","EPOCH":"2025-11-06T06:35:53.852640","MEAN_MOTION":13.1659502,"ECCENTRICITY":0.00020881,"INCLINATION":87.9001,"RA_OF_ASC_NODE":273.1765,"ARG_OF_PERICENTER":85.2044,"MEAN_ANOMALY":274.9325,"EPHEMERIS_TYPE":0,"CLASSIFICATION_TYPE":"U","NORAD_CAT_ID":48977,"ELEMENT_SET_NO":999,"REV_AT_EPOCH":21029,"BSTAR":2.2957151e-5,"MEAN_MOTION_DOT":2.2e-7,"MEAN_MOTION_DDOT":0},{"OBJECT_NAME":"ONEWEB-0260","OBJECT_ID":"2021-060M","EPOCH":"2025-11-06T06:23:22.095744","MEAN_MOTION":13.1659508,"ECCENTRICITY":0.00015131,"INCLINATION":87.8989,"RA_OF_ASC_NODE":273.1964,"ARG_OF_PERICENTER":90.5724,"MEAN_ANOMALY":269.558,"EPHEMERIS_TYPE":0,"CLASSIFICATION_TYPE":"U","NORAD_CAT_ID":48978,"ELEMENT_SET_NO":999,"REV_AT_EPOCH":21027,"BSTAR":-5.2375887e-5,"MEAN_MOTION_DOT":-7.0e-8,"MEAN_MOTION_DDOT":0}]
